NORAD_CAT_ID,OBJECT_NAME,OBJECT_TYPE,EPOCH,MEAN_MOTION,ECCENTRICITY,INCLINATION,RA_OF_ASC_NODE,ARG_OF_PERICENTER,MEAN_ANOMALY,BSTAR,MEAN_MOTION_DOT,MEAN_MOTION_DDOT,TLE_LINE0,TLE_LINE1,TLE_LINE2,SEMIMAJOR_AXIS,PERIOD,APOGEE,PERIGEE,DECAYED
55778.0,STARLINK-5816,PAYLOAD,2023-08-03 17:50:05,14.98319891,0.000231,70.0011,96.9451,261.4831,98.6067,-3.9824e-05,-5.68e-06,0.0,0 STARLINK-5816,1 55778U 23028AP  23215.74312025 -.00000568  00000-0 -39824-4 0  9995,2 55778  70.0011  96.9451 0002310 261.4831  98.6067 14.98319891 24395,6950.224,96.108,573.695,570.484,0.0
55778.0,STARLINK-5816,PAYLOAD,2023-08-04 17:52:05,14.98331079,0.0002568,69.9991,94.4165,273.1606,86.9259,3.9616e-06,-4.6e-07,0.0,0 STARLINK-5816,1 55778U 23028AP  23216.74451388 -.00000046  00000-0  39616-5 0  9992,2 55778  69.9991  94.4165 0002568 273.1606  86.9259 14.98331079 24541,6950.19,96.107,573.839,570.27,0.0
55778.0,STARLINK-5816,PAYLOAD,2023-08-05 01:52:45,14.98339009,0.0002665,69.9989,93.5754,269.2034,90.882,-2.3297e-06,-1.21e-06,0.0,0 STARLINK-5816,1 55778U 23028AP  23217.07830800 -.00000121  00000-0 -23297-5 0  9992,2 55778  69.9989  93.5754 0002665 269.2034  90.8820 14.98339009 24595,6950.165,96.106,573.882,570.178,0.0
55778.0,STARLINK-5816,PAYLOAD,2023-08-06 01:54:46,14.9833763,0.0002507,69.9992,91.0517,261.6302,98.4573,0.00016489,1.875e-05,0.0,0 STARLINK-5816,1 55778U 23028AP  23218.07970105  .00001875  00000-0  16489-3 0  9994,2 55778  69.9992  91.0517 0002507 261.6302  98.4573 14.98337630 24742,6950.169,96.107,573.777,570.292,0.0
55778.0,STARLINK-5816,PAYLOAD,2023-08-06 08:19:19,14.98322186,0.0002307,70.0019,90.3787,267.9986,92.0909,3.8805e-05,3.7e-06,0.0,0 STARLINK-5816,1 55778U 23028AP  23218.34675496  .00000370  00000-0  38805-4 0  9995,2 55778  70.0019  90.3787 0002307 267.9986  92.0909 14.98322186 24788,6950.217,96.108,573.685,570.479,0.0
55778.0,STARLINK-5816,PAYLOAD,2023-08-07 08:21:21,14.98324246,0.0002312,70.0004,87.8549,246.7263,113.3653,-0.00020698,-2.561e-05,0.0,0 STARLINK-5816,1 55778U 23028AP  23219.34816367 -.00002561  00000-0 -20698-3 0  9996,2 55778  70.0004  87.8549 0002312 246.7263 113.3653 14.98324246 24937,6950.211,96.107,573.683,570.469,0.0
55778.0,STARLINK-5816,PAYLOAD,2023-08-07 17:58:09,14.98331378,0.0002429,69.9995,86.8434,264.3709,95.7173,-7.4112e-05,-9.77e-06,0.0,0 STARLINK-5816,1 55778U 23028AP  23219.74871687 -.00000977  00000-0 -74112-4 0  9996,2 55778  69.9995  86.8434 0002429 264.3709  95.7173 14.98331378 24995,6950.189,96.107,573.742,570.365,0.0
55778.0,STARLINK-5816,PAYLOAD,2023-08-08 08:23:21,14.98336167,0.0002459,69.9995,85.328,271.2179,88.8699,-3.0804e-05,-4.61e-06,0.0,0 STARLINK-5816,1 55778U 23028AP  23220.34955277 -.00000461  00000-0 -30804-4 0  9990,2 55778  69.9995  85.3280 0002459 271.2179  88.8699 14.98336167 25087,6950.174,96.107,573.748,570.33,0.0
55778.0,STARLINK-5816,PAYLOAD,2023-08-09 08:25:21,14.98334214,0.0002636,69.999,82.8023,271.5781,88.5076,0.0001777,2.028e-05,0.0,0 STARLINK-5816,1 55778U 23028AP  23221.35094789  .00002028  00000-0  17770-3 0  9999,2 55778  69.9990  82.8023 0002636 271.5781  88.5076 14.98334214 25232,6950.18,96.107,573.877,570.213,0.0
55778.0,STARLINK-5816,PAYLOAD,2023-08-10 00:26:42,14.98332592,0.0002692,69.9986,81.1182,269.7285,90.3566,-1.5056e-05,-2.73e-06,0.0,0 STARLINK-5816,1 55778U 23028AP  23222.01855252 -.00000273  00000-0 -15056-4 0  9991,2 55778  69.9986  81.1182 0002692 269.7285  90.3566 14.98332592 25338,6950.185,96.107,573.921,570.179,0.0
55778.0,STARLINK-5816,PAYLOAD,2023-08-10 14:51:54,14.98375546,0.0002901,69.9985,79.6032,272.9197,87.163,-0.00073826,-8.901e-05,0.0,0 STARLINK-5816,1 55778U 23028AP  23222.61938245 -.00008901  00000-0 -73826-3 0  9995,2 55778  69.9985  79.6032 0002901 272.9197  87.1630 14.98375546 25426,6950.052,96.104,573.933,569.901,0.0
55778.0,STARLINK-5816,PAYLOAD,2023-08-11 00:28:43,14.98331153,0.0002645,69.9985,78.5934,268.8561,91.2295,4.7294e-05,4.71e-06,0.0,0 STARLINK-5816,1 55778U 23028AP  23223.01994751  .00000471  00000-0  47294-4 0  9997,2 55778  69.9985  78.5934 0002645 268.8561  91.2295 14.98331153 25484,6950.189,96.107,573.893,570.216,0.0
55778.0,STARLINK-5816,PAYLOAD,2023-08-12 00:30:44,14.98331297,0.000266,69.9989,76.0685,269.3784,90.707,2.7974e-05,2.41e-06,0.0,0 STARLINK-5816,1 55778U 23028AP  23224.02134746  .00000241  00000-0  27974-4 0  9997,2 55778  69.9989  76.0685 0002660 269.3784  90.7070 14.98331297 25635,6950.189,96.107,573.903,570.205,0.0
55778.0,STARLINK-5816,PAYLOAD,2023-08-13 18:10:14,14.98312496,0.0002742,69.9989,71.6916,266.6014,93.4832,0.00024958,2.885e-05,0.0,0 STARLINK-5816,1 55778U 23028AP  23225.75711093  .00002885  00000-0  24958-3 0  9998,2 55778  69.9989  71.6916 0002742 266.6014  93.4832 14.98312496 25894,6950.247,96.108,574.018,570.206,0.0
55778.0,STARLINK-5816,PAYLOAD,2023-08-14 19:48:23,14.983302,0.0002878,69.999,68.9985,267.571,92.512,1.205e-05,5.1e-07,0.0,0 STARLINK-5816,1 55778U 23028AP  23226.82526708  .00000051  00000-0  12050-4 0  9998,2 55778  69.9990  68.9985 0002878 267.5710  92.5120 14.98330200 26056,6950.192,96.107,574.058,570.057,0.0
55778.0,STARLINK-5816,PAYLOAD,2023-08-16 00:38:47,14.98332231,0.0002843,69.9993,65.969,269.5619,90.5214,5.1513e-05,5.22e-06,0.0,0 STARLINK-5816,1 55778U 23028AP  23228.02694374  .00000522  00000-0  51513-4 0  9997,2 55778  69.9993  65.9690 0002843 269.5619  90.5214 14.98332231 26239,6950.186,96.107,574.027,570.075,0.0
55778.0,STARLINK-5816,PAYLOAD,2023-08-17 11:53:45,14.98332679,0.0002688,70.0025,62.2656,270.0901,89.995,8.0622e-07,-8.3e-07,0.0,0 STARLINK-5816,1 55778U 23028AP  23229.49566277 -.00000083  00000-0  80622-6 0  9997,2 55778  70.0025  62.2656 0002688 270.0901  89.9950 14.98332679 26457,6950.185,96.107,573.918,570.181,0.0
55778.0,STARLINK-5816,PAYLOAD,2023-08-18 15:08:02,14.98327989,0.000289,69.9967,59.4028,271.3786,88.7042,-4.2427e-05,-5.99e-06,0.0,0 STARLINK-5816,1 55778U 23028AP  23230.63058565 -.00000599  00000-0 -42427-4 0  9993,2 55778  69.9967  59.4028 0002890 271.3786  88.7042 14.98327989 26626,6950.199,96.107,574.073,570.056,0.0
55778.0,STARLINK-5816,PAYLOAD,2023-08-20 00:46:51,14.98330499,0.0002864,69.998,55.8682,270.3671,89.716,2.0423e-05,1.51e-06,0.0,0 STARLINK-5816,1 55778U 23028AP  23232.03254208  .00000151  00000-0  20423-4 0  9995,2 55778  69.9980  55.8682 0002864 270.3671  89.7160 14.98330499 26835,6950.191,96.107,574.047,570.066,0.0
55778.0,STARLINK-5816,PAYLOAD,2023-08-21 05:37:16,14.98329973,0.0003195,69.9997,52.8389,269.7707,90.3086,-7.6916e-06,-1.85e-06,0.0,0 STARLINK-5816,1 55778U 23028AP  23233.23422245 -.00000185  00000-0 -76916-5 0  9994,2 55778  69.9997  52.8389 0003195 269.7707  90.3086 14.98329973 27015,6950.193,96.107,574.279,569.837,0.0
55778.0,STARLINK-5816,PAYLOAD,2023-08-22 12:03:50,14.98329466,0.000306,69.9998,49.6401,270.4326,89.6482,2.8891e-05,2.52e-06,0.0,0 STARLINK-5816,1 55778U 23028AP  23234.50266218  .00000252  00000-0  28891-4 0  9992,2 55778  69.9998  49.6401 0003060 270.4326  89.6482 14.98329466 27201,6950.195,96.107,574.186,569.933,0.0
55778.0,STARLINK-5816,PAYLOAD,2023-08-23 12:05:51,14.9832772,0.0003013,70.0001,47.1148,270.1792,89.9022,7.9478e-06,2e-08,0.0,0 STARLINK-5816,1 55778U 23028AP  23235.50406307  .00000002  00000-0  79478-5 0  9999,2 55778  70.0001  47.1148 0003013 270.1792  89.9022 14.98327720 27352,6950.2,96.107,574.159,569.971,0.0
55778.0,STARLINK-5816,PAYLOAD,2023-08-24 12:07:51,14.98332535,0.0003004,70.0004,44.5907,269.953,90.1285,-1.4638e-05,-2.68e-06,0.0,0 STARLINK-5816,1 55778U 23028AP  23236.50546093 -.00000268  00000-0 -14638-4 0  9999,2 55778  70.0004  44.5907 0003004 269.9530  90.1285 14.98332535 27507,6950.185,96.107,574.138,569.962,0.0
55778.0,STARLINK-5816,PAYLOAD,2023-08-25 13:46:01,14.98327045,0.0003066,70.0004,41.8973,274.4268,85.6541,-5.2213e-06,-1.55e-06,0.0,0 STARLINK-5816,1 55778U 23028AP  23237.57362297 -.00000155  00000-0 -52213-5 0  9996,2 55778  70.0004  41.8973 0003066 274.4268  85.6541 14.98327045 27668,6950.202,96.107,574.198,569.936,0.0
55778.0,STARLINK-5816,PAYLOAD,2023-08-25 18:34:25,14.9832882,0.0002981,70.0006,41.3932,265.8015,94.2803,9.3019e-06,1.8e-07,0.0,0 STARLINK-5816,1 55778U 23028AP  23237.77390084  .00000018  00000-0  93019-5 0  9998,2 55778  70.0006  41.3932 0002981 265.8015  94.2803 14.98328820 27691,6950.197,96.107,574.133,569.99,0.0
55778.0,STARLINK-5816,PAYLOAD,2023-08-25 20:10:33,14.98329102,0.0002973,70.0004,41.2247,264.9797,95.1022,1.7084e-05,1.11e-06,0.0,0 STARLINK-5816,1 55778U 23028AP  23237.84066034  .00000111  00000-0  17084-4 0  9992,2 55778  70.0004  41.2247 0002973 264.9797  95.1022 14.98329102 27704,6950.196,96.107,574.127,569.994,0.0
55778.0,STARLINK-5816,PAYLOAD,2023-08-26 12:11:53,14.98329426,0.0003255,70.0008,39.5414,275.3532,84.7255,-4.0757e-05,-5.79e-06,0.0,0 STARLINK-5816,1 55778U 23028AP  23238.50826227 -.00000579  00000-0 -40757-4 0  9997,2 55778  70.0008  39.5414 0003255 275.3532  84.7255 14.98329426 27803,6950.195,96.107,574.322,569.797,0.0
55778.0,STARLINK-5816,PAYLOAD,2023-08-26 18:36:25,14.98330331,0.0003061,70.0005,38.868,269.3097,90.7712,1.4621e-05,8.1e-07,0.0,0 STARLINK-5816,1 55778U 23028AP  23238.77529971  .00000081  00000-0  14621-4 0  9999,2 55778  70.0005  38.8680 0003061 269.3097  90.7712 14.98330331 27847,6950.192,96.107,574.184,569.929,0.0
55778.0,STARLINK-5816,PAYLOAD,2023-08-26 20:12:33,14.98331561,0.0002957,70.001,38.6998,268.392,91.69,-2.1841e-05,-3.54e-06,0.0,0 STARLINK-5816,1 55778U 23028AP  23238.84205980 -.00000354  00000-0 -21841-4 0  9995,2 55778  70.0010  38.6998 0002957 268.3920  91.6900 14.98331561 27856,6950.188,96.107,574.108,569.998,0.0
55778.0,STARLINK-5816,PAYLOAD,2023-08-27 20:14:34,14.98325978,0.0003164,70.0004,36.1742,270.7436,89.336,0.00010859,1.203e-05,0.0,0 STARLINK-5816,1 55778U 23028AP  23239.84345930  .00001203  00000-0  10859-3 0  9994,2 55778  70.0004  36.1742 0003164 270.7436  89.3360 14.98325978 28006,6950.205,96.107,574.269,569.871,0.0
